OBJECT_NAME,OBJECT_ID,EPOCH,MEAN_MOTION,ECCENTRICITY,INCLINATION,RA_OF_ASC_NODE,ARG_OF_PERICENTER,MEAN_ANOMALY,EPHEMERIS_TYPE,CLASSIFICATION_TYPE,NORAD_CAT_ID,ELEMENT_SET_NO,REV_AT_EPOCH,BSTAR,MEAN_MOTION_DOT,MEAN_MOTION_DDOT
COSMO-SKYMED 2,2007-059A,2023-11-28T12:22:48.846432,14.82170005,.0001415,97.8856,153.6260,84.3775,275.7599,0,U,32376,999,86407,.15975E-3,.122E-4,0
RADARSAT-2,2007-061A,2023-11-28T12:22:52.513248,14.29984476,.0001125,98.5786,336.7979,89.3616,270.7696,0,U,32382,999,83291,.87338E-4,.182E-5,0
NAVSTAR 61 (USA 199),2007-062A,2023-11-27T10:41:41.884224,2.00562960,.0023945,55.8091,311.4107,151.8467,20.4740,0,U,32384,999,11680,0,-.75E-6,0
HORIZONS-2,2007-063B,2023-11-28T10:39:17.532288,1.00272706,.0002264,0.1885,91.0977,157.2473,264.7727,0,U,32388,999,5853,0,-.244E-5,0
COSMOS 2434 [GLONASS-M],2007-065A,2023-11-28T08:03:22.821984,2.13103088,.0003668,64.3277,223.4212,71.1280,102.1654,0,U,32393,999,12394,0,.4E-6,0
COSMOS 2436 [GLONASS-M],2007-065C,2023-11-27T16:38:36.398976,2.13102684,.0016881,64.3364,223.5055,4.3770,171.6427,0,U,32395,999,12385,0,.42E-6,0
THURAYA-3,2008-001A,2023-11-27T18:28:10.575840,1.00271188,.0002407,4.5852,30.4573,233.0657,178.4523,0,U,32404,999,5814,0,-.296E-5,0
THOR 5,2008-006A,2023-11-27T21:17:42.762336,1.00273027,.0002679,0.0197,269.7862,344.4349,131.0194,0,U,32487,999,5796,0,.1E-7,0
AMC-14,2008-011A,2023-11-27T20:45:27.719424,1.00271708,.0034907,22.8140,31.7441,352.4389,11.1820,0,U,32708,999,5875,0,.66E-6,0
NAVSTAR 62 (USA 201),2008-012A,2023-11-27T07:14:30.769728,2.00560309,.0178319,54.4480,187.1388,236.3372,122.0386,0,U,32711,999,11504,0,.75E-6,0
DIRECTV 11,2008-013A,2023-11-28T12:14:05.210592,1.00273179,.0001117,0.0543,108.9282,39.4665,3.1059,0,U,32729,999,5759,0,-.117E-5,0
ICO G1,2008-016A,2023-11-27T15:39:06.172128,1.00270968,.0002143,4.6223,33.2281,212.7687,322.2499,0,U,32763,999,5719,0,-.165E-5,0
VINASAT-1,2008-018A,2023-11-27T21:52:59.691936,1.00268834,.0002542,0.0184,19.3144,244.7215,262.7341,0,U,32767,999,5725,0,-.319E-5,0
STAR ONE C2,2008-018B,2023-11-27T20:56:36.248064,1.00271761,.0002983,0.0296,4.2679,248.0675,63.3604,0,U,32768,999,5731,0,-.267E-5,0
CARTOSAT-2A,2008-021A,2023-11-28T10:57:59.946912,14.78675356,.0011259,97.8961,30.0732,253.6588,106.3385,0,U,32783,999,84119,.26858E-3,.1919E-4,0
CUTE-1.7+APD II (CO-65),2008-021C,2023-11-28T11:02:30.364224,14.94021795,.000963,97.7298,295.2679,280.8334,79.1802,0,U,32785,999,84540,.72459E-3,.7683E-4,0
AAUSAT-II,2008-021F,2023-11-27T22:36:47.985984,15.08557975,.0008189,97.5783,308.3507,136.0522,224.1359,0,U,32788,999,84785,.12673E-2,.19787E-3,0
CANX-2,2008-021H,2023-11-28T10:10:08.010048,14.92958715,.0010983,97.7406,294.0591,289.6126,70.3907,0,U,32790,999,84524,.57631E-3,.5936E-4,0
SEEDS II (CO-66),2008-021J,2023-11-28T11:19:59.004480,14.99426462,.0008614,97.6791,300.7207,204.8751,155.2058,0,U,32791,999,84633,.95169E-3,.11622E-3,0
AMOS-3,2008-022A,2023-11-28T07:32:54.483936,1.00268010,.0002923,0.0134,272.2769,316.6633,307.1247,0,U,32794,999,5710,0,-.27E-6,0
GALAXY 18 (G-18),2008-024A,2023-11-28T11:51:24.434784,1.00272158,.000356,0.0138,295.4018,318.8170,227.7717,0,U,32951,999,5674,0,.34E-6,0
YUBILEINY (RS-30),2008-025A,2023-11-28T11:12:34.879968,12.43132544,.0018871,82.5048,214.9165,184.0014,176.0918,0,U,32953,999,70406,.34148E-3,.57E-6,0
COSMOS 2437,2008-025B,2023-11-28T12:35:32.213760,12.42729381,.0020014,82.5031,216.5923,199.8392,280.2163,0,U,32954,999,70387,.20069E-3,.38E-6,0
COSMOS 2438,2008-025C,2023-11-28T01:37:15.430944,12.43335528,.0020958,82.5032,212.8917,177.6988,182.4192,0,U,32955,999,70416,.23919E-3,.43E-6,0
COSMOS 2439,2008-025D,2023-11-28T01:27:49.708800,12.43037387,.0020437,82.5081,217.1598,187.5550,172.5225,0,U,32956,999,70399,.28382E-3,.49E-6,0
FENGYUN 3A,2008-026A,2023-11-28T10:38:47.040864,14.18967709,.0007766,98.5784,280.7047,299.5656,60.4745,0,U,32958,999,80334,.18382E-3,.341E-5,0
CHINASAT 9 (ZX 9),2008-028A,2023-11-28T01:07:43.260672,1.00270358,.0004925,0.0183,333.2722,286.1658,276.3957,0,U,33051,999,5666,0,-.238E-5,0
FGRST (GLAST),2008-029A,2023-11-27T21:23:57.909408,15.15215116,.0011166,25.5807,156.7699,193.4097,166.6143,0,U,33053,999,85384,.19579E-3,.4093E-4,0
SKYNET 5C,2008-030A,2023-11-27T21:10:08.274144,1.00271150,.0003974,1.3848,87.1505,161.6367,117.4707,0,U,33055,999,5660,0,-.13E-5,0
TURKSAT 3A,2008-030B,2023-11-27T21:27:10.826784,1.00273889,.0003742,0.0611,118.3284,124.2871,187.7201,0,U,33056,999,4300,0,.155E-5,0
INTELSAT 25 (IS-25),2008-034A,2023-11-28T10:51:26.852832,1.00271088,.0003257,0.2964,90.9109,159.8578,307.7054,0,U,33153,999,5629,0,-.215E-5,0
