COSMO-SKYMED 2          
1 32376U 07059A   23332.51584313  .00001220  00000+0  15975-3 0  9999
2 32376  97.8856 153.6260 0001415  84.3775 275.7599 14.82170005864071
RADARSAT-2              
1 32382U 07061A   23332.51588557  .00000182  00000+0  87338-4 0  9992
2 32382  98.5786 336.7979 0001125  89.3616 270.7696 14.29984476832913
NAVSTAR 61 (USA 199)    
1 32384U 07062A   23331.44562366 -.00000075  00000+0  00000+0 0  9994
2 32384  55.8091 311.4107 0023945 151.8467  20.4740  2.00562960116805
HORIZONS-2              
1 32388U 07063B   23332.44395292 -.00000244  00000+0  00000+0 0  9990
2 32388   0.1885  91.0977 0002264 157.2473 264.7727  1.00272706 58535
COSMOS 2434 [GLONASS-M] 
1 32393U 07065A   23332.33568081  .00000040  00000+0  00000+0 0  9997
2 32393  64.3277 223.4212 0003668  71.1280 102.1654  2.13103088123943
COSMOS 2436 [GLONASS-M] 
1 32395U 07065C   23331.69347684  .00000042  00000+0  00000+0 0  9993
2 32395  64.3364 223.5055 0016881   4.3770 171.6427  2.13102684123851
THURAYA-3               
1 32404U 08001A   23331.76956685 -.00000296  00000+0  00000+0 0  9992
2 32404   4.5852  30.4573 0002407 233.0657 178.4523  1.00271188 58146
THOR 5                  
1 32487U 08006A   23331.88730049  .00000001  00000+0  00000+0 0  9998
2 32487   0.0197 269.7862 0002679 344.4349 131.0194  1.00273027 57966
AMC-14                  
1 32708U 08011A   23331.86490416  .00000066  00000+0  00000+0 0  9990
2 32708  22.8140  31.7441 0034907 352.4389  11.1820  1.00271708 58750
NAVSTAR 62 (USA 201)    
1 32711U 08012A   23331.30174502  .00000075  00000+0  00000+0 0  9999
2 32711  54.4480 187.1388 0178319 236.3372 122.0386  2.00560309115040
DIRECTV 11              
1 32729U 08013A   23332.50978253 -.00000117  00000+0  00000+0 0  9995
2 32729   0.0543 108.9282 0001117  39.4665   3.1059  1.00273179 57594
ICO G1                  
1 32763U 08016A   23331.65215477 -.00000165  00000+0  00000+0 0  9996
2 32763   4.6223  33.2281 0002143 212.7687 322.2499  1.00270968 57198
VINASAT-1               
1 32767U 08018A   23331.91180199 -.00000319  00000+0  00000+0 0  9994
2 32767   0.0184  19.3144 0002542 244.7215 262.7341  1.00268834 57256
STAR ONE C2             
1 32768U 08018B   23331.87264176 -.00000267  00000+0  00000+0 0  9990
2 32768   0.0296   4.2679 0002983 248.0675  63.3604  1.00271761 57310
CARTOSAT-2A             
1 32783U 08021A   23332.45694383  .00001919  00000+0  26858-3 0  9990
2 32783  97.8961  30.0732 0011259 253.6588 106.3385 14.78675356841196
CUTE-1.7+APD II (CO-65) 
1 32785U 08021C   23332.46007366  .00007683  00000+0  72459-3 0  9994
2 32785  97.7298 295.2679 0009630 280.8334  79.1802 14.94021795845405
AAUSAT-II               
1 32788U 08021F   23331.94222206  .00019787  00000+0  12673-2 0  9990
2 32788  97.5783 308.3507 0008189 136.0522 224.1359 15.08557975847850
CANX-2                  
1 32790U 08021H   23332.42370382  .00005936  00000+0  57631-3 0  9991
2 32790  97.7406 294.0591 0010983 289.6126  70.3907 14.92958715845241
SEEDS II (CO-66)        
1 32791U 08021J   23332.47221070  .00011622  00000+0  95169-3 0  9993
2 32791  97.6791 300.7207 0008614 204.8751 155.2058 14.99426462846335
AMOS-3                  
1 32794U 08022A   23332.31451949 -.00000027  00000+0  00000+0 0  9994
2 32794   0.0134 272.2769 0002923 316.6633 307.1247  1.00268010 57109
GALAXY 18 (G-18)        
1 32951U 08024A   23332.49403281  .00000034  00000+0  00000+0 0  9993
2 32951   0.0138 295.4018 0003560 318.8170 227.7717  1.00272158 56746
YUBILEINY (RS-30)       
1 32953U 08025A   23332.46707037  .00000057  00000+0  34148-3 0  9998
2 32953  82.5048 214.9165 0018871 184.0014 176.0918 12.43132544704060
COSMOS 2437             
1 32954U 08025B   23332.52467840  .00000038  00000+0  20069-3 0  9997
2 32954  82.5031 216.5923 0020014 199.8392 280.2163 12.42729381703876
COSMOS 2438             
1 32955U 08025C   23332.06753971  .00000043  00000+0  23919-3 0  9993
2 32955  82.5032 212.8917 0020958 177.6988 182.4192 12.43335528704167
COSMOS 2439             
1 32956U 08025D   23332.06099200  .00000049  00000+0  28382-3 0  9997
2 32956  82.5081 217.1598 0020437 187.5550 172.5225 12.43037387703991
FENGYUN 3A              
1 32958U 08026A   23332.44360001  .00000341  00000+0  18382-3 0  9996
2 32958  98.5784 280.7047 0007766 299.5656  60.4745 14.18967709803342
CHINASAT 9 (ZX 9)       
1 33051U 08028A   23332.04702848 -.00000238  00000+0  00000+0 0  9998
2 33051   0.0183 333.2722 0004925 286.1658 276.3957  1.00270358 56662
FGRST (GLAST)           
1 33053U 08029A   23331.89164247  .00004093  00000+0  19579-3 0  9995
2 33053  25.5807 156.7699 0011166 193.4097 166.6143 15.15215116853847
SKYNET 5C               
1 33055U 08030A   23331.88204021 -.00000130  00000+0  00000+0 0  9997
2 33055   1.3848  87.1505 0003974 161.6367 117.4707  1.00271150 56602
TURKSAT 3A              
1 33056U 08030B   23331.89387531  .00000155  00000+0  00000+0 0  9993
2 33056   0.0611 118.3284 0003742 124.2871 187.7201  1.00273889 43006
INTELSAT 25 (IS-25)     
1 33153U 08034A   23332.45239413 -.00000215  00000+0  00000+0 0  9991
2 33153   0.2964  90.9109 0003257 159.8578 307.7054  1.00271088 56291
